CCSDS_OMM_VERS = 2.0
CREATION_DATE  = 
ORIGINATOR     = 

OBJECT_NAME    = SILVERSAT
OBJECT_ID      = 1998-067XV
CENTER_NAME    = EARTH
REF_FRAME      = TEME
TIME_SYSTEM    = UTC
MEAN_ELEMENT_THEORY = SGP/SGP4

EPOCH          = 2026-02-12T18:52:43.535136
MEAN_MOTION    = 15.64148018
ECCENTRICITY   = .00026217
INCLINATION    = 51.6260
RA_OF_ASC_NODE = 191.6138
ARG_OF_PERICENTER = 286.8301
MEAN_ANOMALY   = 73.2406

EPHEMERIS_TYPE = 0
CLASSIFICATION_TYPE = U
NORAD_CAT_ID   = 66909
ELEMENT_SET_NO = 999
REV_AT_EPOCH   = 1128
BSTAR          = .13214761E-2
MEAN_MOTION_DOT = .12951E-2
MEAN_MOTION_DDOT = 0

CCSDS_OMM_VERS = 2.0
CREATION_DATE  = 
ORIGINATOR     = 

OBJECT_NAME    = ISS OBJECT XW
OBJECT_ID      = 1998-067XW
CENTER_NAME    = EARTH
REF_FRAME      = TEME
TIME_SYSTEM    = UTC
MEAN_ELEMENT_THEORY = SGP/SGP4

EPOCH          = 2026-02-12T19:20:42.626688
MEAN_MOTION    = 15.62492126
ECCENTRICITY   = .00018154
INCLINATION    = 51.6251
RA_OF_ASC_NODE = 191.7381
ARG_OF_PERICENTER = 319.3740
MEAN_ANOMALY   = 40.7118

EPHEMERIS_TYPE = 0
CLASSIFICATION_TYPE = U
NORAD_CAT_ID   = 66910
ELEMENT_SET_NO = 999
REV_AT_EPOCH   = 1128
BSTAR          = .11175686E-2
MEAN_MOTION_DOT = .102181E-2
MEAN_MOTION_DDOT = 0

CCSDS_OMM_VERS = 2.0
CREATION_DATE  = 
ORIGINATOR     = 

OBJECT_NAME    = ISS OBJECT XX
OBJECT_ID      = 1998-067XX
CENTER_NAME    = EARTH
REF_FRAME      = TEME
TIME_SYSTEM    = UTC
MEAN_ELEMENT_THEORY = SGP/SGP4

EPOCH          = 2026-02-12T15:01:00.112800
MEAN_MOTION    = 15.65511224
ECCENTRICITY   = .0003356
INCLINATION    = 51.6233
RA_OF_ASC_NODE = 192.0300
ARG_OF_PERICENTER = 305.0177
MEAN_ANOMALY   = 55.0503

EPHEMERIS_TYPE = 0
CLASSIFICATION_TYPE = U
NORAD_CAT_ID   = 66911
ELEMENT_SET_NO = 999
REV_AT_EPOCH   = 1125
BSTAR          = .14994E-2
MEAN_MOTION_DOT = .155735E-2
MEAN_MOTION_DDOT = 0

CCSDS_OMM_VERS = 2.0
CREATION_DATE  = 
ORIGINATOR     = 

OBJECT_NAME    = ISS OBJECT XY
OBJECT_ID      = 1998-067XY
CENTER_NAME    = EARTH
REF_FRAME      = TEME
TIME_SYSTEM    = UTC
MEAN_ELEMENT_THEORY = SGP/SGP4

EPOCH          = 2026-02-12T19:29:57.540192
MEAN_MOTION    = 15.59404778
ECCENTRICITY   = .0000339
INCLINATION    = 51.6277
RA_OF_ASC_NODE = 192.5393
ARG_OF_PERICENTER = 282.0268
MEAN_ANOMALY   = 78.0687

EPHEMERIS_TYPE = 0
CLASSIFICATION_TYPE = U
NORAD_CAT_ID   = 66912
ELEMENT_SET_NO = 999
REV_AT_EPOCH   = 1126
BSTAR          = .9558543E-3
MEAN_MOTION_DOT = .77252E-3
MEAN_MOTION_DDOT = 0

CCSDS_OMM_VERS = 2.0
CREATION_DATE  = 
ORIGINATOR     = 

OBJECT_NAME    = ISS OBJECT XZ
OBJECT_ID      = 1998-067XZ
CENTER_NAME    = EARTH
REF_FRAME      = TEME
TIME_SYSTEM    = UTC
MEAN_ELEMENT_THEORY = SGP/SGP4

EPOCH          = 2026-02-13T05:45:59.599296
MEAN_MOTION    = 15.49842498
ECCENTRICITY   = .00107114
INCLINATION    = 51.6301
RA_OF_ASC_NODE = 193.1438
ARG_OF_PERICENTER = 107.0390
MEAN_ANOMALY   = 253.1773

EPHEMERIS_TYPE = 0
CLASSIFICATION_TYPE = U
NORAD_CAT_ID   = 67683
ELEMENT_SET_NO = 999
REV_AT_EPOCH   = 99
BSTAR          = .67146506E-3
MEAN_MOTION_DOT = .37912E-3
MEAN_MOTION_DDOT = 0

CCSDS_OMM_VERS = 2.0
CREATION_DATE  = 
ORIGINATOR     = 

OBJECT_NAME    = GXIBA-1
OBJECT_ID      = 1998-067YA
CENTER_NAME    = EARTH
REF_FRAME      = TEME
TIME_SYSTEM    = UTC
MEAN_ELEMENT_THEORY = SGP/SGP4

EPOCH          = 2026-02-13T05:42:01.827360
MEAN_MOTION    = 15.50586782
ECCENTRICITY   = .00125254
INCLINATION    = 51.6297
RA_OF_ASC_NODE = 193.1269
ARG_OF_PERICENTER = 101.3837
MEAN_ANOMALY   = 258.8560

EPHEMERIS_TYPE = 0
CLASSIFICATION_TYPE = U
NORAD_CAT_ID   = 67684
ELEMENT_SET_NO = 999
REV_AT_EPOCH   = 99
BSTAR          = .12311631E-2
MEAN_MOTION_DOT = .72147E-3
MEAN_MOTION_DDOT = 0

CCSDS_OMM_VERS = 2.0
CREATION_DATE  = 
ORIGINATOR     = 

OBJECT_NAME    = CORAL
OBJECT_ID      = 1998-067YB
CENTER_NAME    = EARTH
REF_FRAME      = TEME
TIME_SYSTEM    = UTC
MEAN_ELEMENT_THEORY = SGP/SGP4

EPOCH          = 2026-02-13T05:45:10.149120
MEAN_MOTION    = 15.49978416
ECCENTRICITY   = .00126837
INCLINATION    = 51.6299
RA_OF_ASC_NODE = 193.1399
ARG_OF_PERICENTER = 102.9085
MEAN_ANOMALY   = 257.3321

EPHEMERIS_TYPE = 0
CLASSIFICATION_TYPE = U
NORAD_CAT_ID   = 67685
ELEMENT_SET_NO = 999
REV_AT_EPOCH   = 99
BSTAR          = .73101821E-3
MEAN_MOTION_DOT = .41573E-3
MEAN_MOTION_DDOT = 0

CCSDS_OMM_VERS = 2.0
CREATION_DATE  = 
ORIGINATOR     = 

OBJECT_NAME    = ISS OBJECT YC
OBJECT_ID      = 1998-067YC
CENTER_NAME    = EARTH
REF_FRAME      = TEME
TIME_SYSTEM    = UTC
MEAN_ELEMENT_THEORY = SGP/SGP4

EPOCH          = 2026-02-13T05:44:30.383520
MEAN_MOTION    = 15.50119870
ECCENTRICITY   = .00078146
INCLINATION    = 51.6304
RA_OF_ASC_NODE = 193.1388
ARG_OF_PERICENTER = 77.4740
MEAN_ANOMALY   = 282.7122

EPHEMERIS_TYPE = 0
CLASSIFICATION_TYPE = U
NORAD_CAT_ID   = 67686
ELEMENT_SET_NO = 999
REV_AT_EPOCH   = 99
BSTAR          = .86945206E-3
MEAN_MOTION_DOT = .49739E-3
MEAN_MOTION_DDOT = 0

CCSDS_OMM_VERS = 2.0
CREATION_DATE  = 
ORIGINATOR     = 

OBJECT_NAME    = LEOPARD
OBJECT_ID      = 1998-067YD
CENTER_NAME    = EARTH
REF_FRAME      = TEME
TIME_SYSTEM    = UTC
MEAN_ELEMENT_THEORY = SGP/SGP4

EPOCH          = 2026-02-13T05:45:30.402144
MEAN_MOTION    = 15.49922863
ECCENTRICITY   = .00078803
INCLINATION    = 51.6305
RA_OF_ASC_NODE = 193.1421
ARG_OF_PERICENTER = 79.7885
MEAN_ANOMALY   = 280.3992

EPHEMERIS_TYPE = 0
CLASSIFICATION_TYPE = U
NORAD_CAT_ID   = 67687
ELEMENT_SET_NO = 999
REV_AT_EPOCH   = 91
BSTAR          = .68900525E-3
MEAN_MOTION_DOT = .38992E-3
MEAN_MOTION_DDOT = 0

CCSDS_OMM_VERS = 2.0
CREATION_DATE  = 
ORIGINATOR     = 

OBJECT_NAME    = ISS OBJECT YE
OBJECT_ID      = 1998-067YE
CENTER_NAME    = EARTH
REF_FRAME      = TEME
TIME_SYSTEM    = UTC
MEAN_ELEMENT_THEORY = SGP/SGP4

EPOCH          = 2026-02-13T05:44:43.337472
MEAN_MOTION    = 15.50061669
ECCENTRICITY   = .0007767
INCLINATION    = 51.6307
RA_OF_ASC_NODE = 193.1391
ARG_OF_PERICENTER = 78.6015
MEAN_ANOMALY   = 281.5846

EPHEMERIS_TYPE = 0
CLASSIFICATION_TYPE = U
NORAD_CAT_ID   = 67688
ELEMENT_SET_NO = 999
REV_AT_EPOCH   = 91
BSTAR          = .77722415E-3
MEAN_MOTION_DOT = .4429E-3
MEAN_MOTION_DDOT = 0

